SOYUZ-MS 28             
1 66664U 25275A   26003.53276902  .00013553  00000+0  25297-3 0  9998
2 66664  51.6327  34.5663 0007560 336.0107  24.0528 15.49066978  1286
1998-067XS              
1 66906U 98067XS  26003.56914344  .00032069  00000+0  53068-3 0  9998
2 66906  51.6318  34.0602 0002449 317.8202  42.2599 15.51896451  5001
1998-067XT              
1 66907U 98067XT  26003.34970210  .00110395  00000+0  16211-2 0  9996
2 66907  51.6314  34.8450 0003917 359.2248   0.8736 15.54636251  4979
1998-067XU              
1 66908U 98067XU  26003.34863058  .00114458  00000+0  16813-2 0  9990
2 66908  51.6306  34.8369 0003914 355.2960   4.7994 15.54610164  4978
SILVERSAT               
1 66909U 98067XV  26003.28037573  .00121416  00000+0  17490-2 0  9993
2 66909  51.6307  35.1315 0004042   3.2126 356.8890 15.55112972  4962
1998-067XW              
1 66910U 98067XW  26003.53670495  .00094552  00000+0  13772-2 0  9998
2 66910  51.6305  33.8420 0003166 337.4672  22.6179 15.54935821  5007
1998-067XX              
1 66911U 98067XX  26003.33603382  .00133933  00000+0  18813-2 0  9996
2 66911  51.6316  34.7530 0003095 350.1444   9.9486 15.55746909  4963
1998-067XY              
1 66912U 98067XY  26003.29494123  .00085142  00000+0  13036-2 0  9993
2 66912  51.6316  35.2295 0003743 346.2968  13.7920 15.53613153  4952
